{"fetched_at":"2026-03-29T16:36:15Z","count":15609,"tles":[{"name":"STARLINK-3854","line1":"1 52648U 22052BC  26087.53239072  .00000179  00000+0  29352-4 0  9991","line2":"2 52648  53.2181 174.5313 0001438  89.9219 270.1938 15.08837896213972","category":"Starlink"}]}